[{"OBJECT_NAME":"KUIPER-00204","OBJECT_ID":"2025-301N","EPOCH":"2026-03-09T09:32:32.981280","MEAN_MOTION":15.260884,"ECCENTRICITY":0.00030716,"INCLINATION":51.887,"RA_OF_ASC_NODE":71.6415,"ARG_OF_PERICENTER":354.8934,"MEAN_ANOMALY":5.2016,"EPHEMERIS_TYPE":0,"CLASSIFICATION_TYPE":"U","NORAD_CAT_ID":67145,"ELEMENT_SET_NO":999,"REV_AT_EPOCH":1373,"BSTAR":0.00079568218,"MEAN_MOTION_DOT":0.00020516,"MEAN_MOTION_DDOT":0},{"OBJECT_NAME":"STARLINK-36468","OBJECT_ID":"2026-005M","EPOCH":"2026-03-09T12:00:43.062624","MEAN_MOTION":15.27593567,"ECCENTRICITY":0.00017938,"INCLINATION":42.9967,"RA_OF_ASC_NODE":239.3847,"ARG_OF_PERICENTER":290.0417,"MEAN_ANOMALY":70.0242,"EPHEMERIS_TYPE":0,"CLASSIFICATION_TYPE":"U","NORAD_CAT_ID":67415,"ELEMENT_SET_NO":999,"REV_AT_EPOCH":866,"BSTAR":0.0014118548,"MEAN_MOTION_DOT":0.00038811,"MEAN_MOTION_DDOT":0}]
