KUIPER-00204            
1 67145U 25301N   26068.39760395  .00020516  00000+0  79568-3 0  9999
2 67145  51.8870  71.6415 0003071 354.8934   5.2016 15.26088400 13737
STARLINK-36468          
1 67415U 26005M   26068.50049841  .00038811  00000+0  14119-2 0  9997
2 67415  42.9967 239.3847 0001793 290.0417  70.0242 15.27593567  8666
